<?xml version="1.0" encoding="UTF-8"?>
<kml xmlns="http://www.opengis.net/kml/2.2">
  <Document id="root_doc">
    <Schema id="YPEJH__.schema">
      <SimpleField name="Cédula" type="double"/>
      <SimpleField name="cedula" type="string"/>
      <SimpleField name="Cédula_1" type="double"/>
      <SimpleField name="N_" type="double"/>
      <SimpleField name="Nombres_y_" type="string"/>
      <SimpleField name="Sexo" type="string"/>
      <SimpleField name="Cambio_de_" type="string"/>
      <SimpleField name="Titular_se" type="string"/>
      <SimpleField name="Cédula_Ti" type="double"/>
      <SimpleField name="Situación" type="string"/>
      <SimpleField name="Comunidad" type="string"/>
      <SimpleField name="Modelo_imp" type="string"/>
      <SimpleField name="Departamen" type="string"/>
      <SimpleField name="Distrito" type="string"/>
      <SimpleField name="Localidad" type="string"/>
      <SimpleField name="Teléfono" type="string"/>
      <SimpleField name="Vivienda_L" type="double"/>
      <SimpleField name="Vivienda_1" type="double"/>
      <SimpleField name="Superficie" type="double"/>
      <SimpleField name="Situaci_1" type="string"/>
      <SimpleField name="Plantado" type="string"/>
      <SimpleField name="Parcela_La" type="double"/>
      <SimpleField name="Parcela_Lo" type="double"/>
      <SimpleField name="Grupo_Impl" type="string"/>
      <SimpleField name="Grupo_de_P" type="string"/>
      <SimpleField name="Jornales" type="double"/>
      <SimpleField name="Monto" type="double"/>
      <SimpleField name="ETAPA_FAO" type="string"/>
      <SimpleField name="Estado_del" type="string"/>
      <SimpleField name="Adjudicado" type="string"/>
      <SimpleField name="Empresa" type="string"/>
      <SimpleField name="Lote" type="string"/>
      <SimpleField name="Monitorear" type="string"/>
      <SimpleField name="Fecha_de_M" type="string"/>
      <SimpleField name="F__de_pren" type="string"/>
      <SimpleField name="Estado_FAO" type="string"/>
      <SimpleField name="Etapa_de_i" type="string"/>
      <SimpleField name="Fecha_visi" type="string"/>
      <SimpleField name="Cumple_sup" type="string"/>
      <SimpleField name="Estado_mon" type="string"/>
      <SimpleField name="Situaci_12" type="string"/>
      <SimpleField name="Observaci" type="string"/>
      <SimpleField name="Dias_trans" type="double"/>
      <SimpleField name="Prioridad" type="string"/>
      <SimpleField name="OBJECTID_1" type="int"/>
    </Schema>
    <Document id="YPEJH__">
      <name>YPEJHÃš</name>
      <Placemark id="YPEJH__.1">
        <ExtendedData>
          <SchemaData schemaUrl="#YPEJH__.schema">
            <SimpleData name="Cédula">5829383.00000000000</SimpleData>
            <SimpleData name="cedula">5829383</SimpleData>
            <SimpleData name="Cédula_1">5829383.00000000000</SimpleData>
            <SimpleData name="N_">85.00000000000</SimpleData>
            <SimpleData name="Nombres_y_">NICOLASA BENITEZ</SimpleData>
            <SimpleData name="Sexo">Mujer</SimpleData>
            <SimpleData name="Cambio_de_">NO</SimpleData>
            <SimpleData name="Titular_se">NO</SimpleData>
            <SimpleData name="Cédula_Ti">0.00000000000</SimpleData>
            <SimpleData name="Situación">NO</SimpleData>
            <SimpleData name="Comunidad">Ind?gena</SimpleData>
            <SimpleData name="Modelo_imp">Modelo 5</SimpleData>
            <SimpleData name="Departamen">CANINDEYU</SimpleData>
            <SimpleData name="Distrito">YPEJH?</SimpleData>
            <SimpleData name="Localidad">COM INDIG ITANARA-PARIRI</SimpleData>
            <SimpleData name="Teléfono">0986705917</SimpleData>
            <SimpleData name="Vivienda_L">-23.83862960000</SimpleData>
            <SimpleData name="Vivienda_1">-55.68903370000</SimpleData>
            <SimpleData name="Superficie">0.70000000000</SimpleData>
            <SimpleData name="Situaci_1">Par?metro</SimpleData>
            <SimpleData name="Plantado">SI</SimpleData>
            <SimpleData name="Parcela_La">-23.83979453000</SimpleData>
            <SimpleData name="Parcela_Lo">-55.69010629000</SimpleData>
            <SimpleData name="Grupo_Impl">G2</SimpleData>
            <SimpleData name="Grupo_de_P">H-P8-XX-XX-XX</SimpleData>
            <SimpleData name="Jornales">0.00000000000</SimpleData>
            <SimpleData name="Monto">0.00000000000</SimpleData>
            <SimpleData name="ETAPA_FAO">Mantenimiento A?o 1.1</SimpleData>
            <SimpleData name="Estado_del">Activo</SimpleData>
            <SimpleData name="Adjudicado">SI</SimpleData>
            <SimpleData name="Empresa">Hyh Consultores SRL</SimpleData>
            <SimpleData name="Lote">H</SimpleData>
            <SimpleData name="Monitorear">Si</SimpleData>
            <SimpleData name="Fecha_de_M">-</SimpleData>
            <SimpleData name="F__de_pren">-</SimpleData>
            <SimpleData name="Estado_FAO">Monitorear</SimpleData>
            <SimpleData name="Etapa_de_i">Mantenimiento A?o 1.1</SimpleData>
            <SimpleData name="Fecha_visi">2026/09/07</SimpleData>
            <SimpleData name="Cumple_sup">Si</SimpleData>
            <SimpleData name="Estado_mon">-</SimpleData>
            <SimpleData name="Situaci_12">-</SimpleData>
            <SimpleData name="Observaci">-</SimpleData>
            <SimpleData name="Dias_trans">20.51660879630</SimpleData>
            <SimpleData name="Prioridad">ALTA</SimpleData>
            <SimpleData name="OBJECTID_1">85</SimpleData>
          </SchemaData>
        </ExtendedData>
        <Polygon>
          <outerBoundaryIs>
            <LinearRing>
              <coordinates>
                -55.6900915325847,-23.8404674236856,0
                -55.6900899998054,-23.8404650003142,0
                -55.690355200147,-23.8397603998346,0
                -55.690418587313,-23.8397147772528,0
                -55.6904501997343,-23.8396024001823,0
                -55.6904914993132,-23.8393917004716,0
                -55.6905249796475,-23.8393352629613,0
                -55.6905625000343,-23.8390188996288,0
                -55.6904649999953,-23.8389316997299,0
                -55.6903314996746,-23.8389150997329,0
                -55.6903266850278,-23.8388851900861,0
                -55.6902502999068,-23.8389292003313,0
                -55.6898632999744,-23.840003300189,0
                -55.6896305991868,-23.840218699987,0
                -55.6894999996344,-23.8402952999429,0
                -55.6895572992575,-23.84045850015,0
                -55.6896276996071,-23.8405356003186,0
                -55.6897327999776,-23.8406242001479,0
                -55.6898904990887,-23.8404339998612,0
                -55.6900657993352,-23.8405212005184,0
                -55.6900915325847,-23.8404674236856,0
              </coordinates>
            </LinearRing>
          </outerBoundaryIs>
        </Polygon>
      </Placemark>
      <Placemark id="YPEJH__.2">
        <ExtendedData>
          <SchemaData schemaUrl="#YPEJH__.schema">
            <SimpleData name="Cédula">8078026.00000000000</SimpleData>
            <SimpleData name="cedula">8078026</SimpleData>
            <SimpleData name="Cédula_1">8078026.00000000000</SimpleData>
            <SimpleData name="N_">95.00000000000</SimpleData>
            <SimpleData name="Nombres_y_">VICTOR ESPINOLA OCAMPO</SimpleData>
            <SimpleData name="Sexo">Hombre</SimpleData>
            <SimpleData name="Cambio_de_">NO</SimpleData>
            <SimpleData name="Titular_se">NO</SimpleData>
            <SimpleData name="Cédula_Ti">0.00000000000</SimpleData>
            <SimpleData name="Situación">NO</SimpleData>
            <SimpleData name="Comunidad">Ind?gena</SimpleData>
            <SimpleData name="Modelo_imp">Modelo 5</SimpleData>
            <SimpleData name="Departamen">CANINDEYU</SimpleData>
            <SimpleData name="Distrito">YPEJH?</SimpleData>
            <SimpleData name="Localidad">COM INDIG YVY KATU</SimpleData>
            <SimpleData name="Teléfono">0985637513</SimpleData>
            <SimpleData name="Vivienda_L">-23.96981620000</SimpleData>
            <SimpleData name="Vivienda_1">-55.85892080000</SimpleData>
            <SimpleData name="Superficie">0.70000000000</SimpleData>
            <SimpleData name="Situaci_1">Par?metro</SimpleData>
            <SimpleData name="Plantado">SI</SimpleData>
            <SimpleData name="Parcela_La">-23.96577130000</SimpleData>
            <SimpleData name="Parcela_Lo">-55.85968949000</SimpleData>
            <SimpleData name="Grupo_Impl">G2</SimpleData>
            <SimpleData name="Grupo_de_P">H-P7-XX-XX-XX</SimpleData>
            <SimpleData name="Jornales">0.00000000000</SimpleData>
            <SimpleData name="Monto">0.00000000000</SimpleData>
            <SimpleData name="ETAPA_FAO">Mantenimiento A?o 1.1</SimpleData>
            <SimpleData name="Estado_del">Activo</SimpleData>
            <SimpleData name="Adjudicado">SI</SimpleData>
            <SimpleData name="Empresa">Hyh Consultores SRL</SimpleData>
            <SimpleData name="Lote">H</SimpleData>
            <SimpleData name="Monitorear">-</SimpleData>
            <SimpleData name="Fecha_de_M">-</SimpleData>
            <SimpleData name="F__de_pren">-</SimpleData>
            <SimpleData name="Estado_FAO">Verificar posible desercion</SimpleData>
            <SimpleData name="Etapa_de_i">Mantenimiento A?o 1.1</SimpleData>
            <SimpleData name="Fecha_visi">2026/09/04</SimpleData>
            <SimpleData name="Cumple_sup">Si</SimpleData>
            <SimpleData name="Estado_mon">-</SimpleData>
            <SimpleData name="Situaci_12">-</SimpleData>
            <SimpleData name="Observaci">-</SimpleData>
            <SimpleData name="Dias_trans">23.30917315970</SimpleData>
            <SimpleData name="Prioridad">ALTA</SimpleData>
            <SimpleData name="OBJECTID_1">95</SimpleData>
          </SchemaData>
        </ExtendedData>
        <Polygon>
          <outerBoundaryIs>
            <LinearRing>
              <coordinates>
                -55.8593119999557,-23.9653448997358,0
                -55.8593699999533,-23.9663135003635,0
                -55.8602082999055,-23.9660183000887,0
                -55.8598799998837,-23.9652749998674,0
                -55.8593119999557,-23.9653448997358,0
              </coordinates>
            </LinearRing>
          </outerBoundaryIs>
        </Polygon>
      </Placemark>
      <Placemark id="YPEJH__.3">
        <ExtendedData>
          <SchemaData schemaUrl="#YPEJH__.schema">
            <SimpleData name="Cédula">6757505.00000000000</SimpleData>
            <SimpleData name="cedula">6757505</SimpleData>
            <SimpleData name="Cédula_1">6757505.00000000000</SimpleData>
            <SimpleData name="N_">97.00000000000</SimpleData>
            <SimpleData name="Nombres_y_">VIDALINA AQUINO RECALDE</SimpleData>
            <SimpleData name="Sexo">Mujer</SimpleData>
            <SimpleData name="Cambio_de_">NO</SimpleData>
            <SimpleData name="Titular_se">NO</SimpleData>
            <SimpleData name="Cédula_Ti">0.00000000000</SimpleData>
            <SimpleData name="Situación">NO</SimpleData>
            <SimpleData name="Comunidad">Ind?gena</SimpleData>
            <SimpleData name="Modelo_imp">Modelo 2</SimpleData>
            <SimpleData name="Departamen">CANINDEYU</SimpleData>
            <SimpleData name="Distrito">YPEJH?</SimpleData>
            <SimpleData name="Localidad">COM INDIG ITANARA-PARIRI</SimpleData>
            <SimpleData name="Teléfono">0984185421</SimpleData>
            <SimpleData name="Vivienda_L">-23.86714330000</SimpleData>
            <SimpleData name="Vivienda_1">-55.69413330000</SimpleData>
            <SimpleData name="Superficie">0.80000000000</SimpleData>
            <SimpleData name="Situaci_1">Par?metro</SimpleData>
            <SimpleData name="Plantado">SI</SimpleData>
            <SimpleData name="Parcela_La">-23.86625117000</SimpleData>
            <SimpleData name="Parcela_Lo">-55.69416186000</SimpleData>
            <SimpleData name="Grupo_Impl">G2</SimpleData>
            <SimpleData name="Grupo_de_P">H-P8-XX-XX-XX</SimpleData>
            <SimpleData name="Jornales">0.00000000000</SimpleData>
            <SimpleData name="Monto">0.00000000000</SimpleData>
            <SimpleData name="ETAPA_FAO">Mantenimiento A?o 1.1</SimpleData>
            <SimpleData name="Estado_del">Activo</SimpleData>
            <SimpleData name="Adjudicado">SI</SimpleData>
            <SimpleData name="Empresa">Hyh Consultores SRL</SimpleData>
            <SimpleData name="Lote">H</SimpleData>
            <SimpleData name="Monitorear">Si</SimpleData>
            <SimpleData name="Fecha_de_M">-</SimpleData>
            <SimpleData name="F__de_pren">-</SimpleData>
            <SimpleData name="Estado_FAO">Monitorear</SimpleData>
            <SimpleData name="Etapa_de_i">Mantenimiento A?o 1.1</SimpleData>
            <SimpleData name="Fecha_visi">2026/08/31</SimpleData>
            <SimpleData name="Cumple_sup">Si</SimpleData>
            <SimpleData name="Estado_mon">-</SimpleData>
            <SimpleData name="Situaci_12">-</SimpleData>
            <SimpleData name="Observaci">-</SimpleData>
            <SimpleData name="Dias_trans">27.43275462960</SimpleData>
            <SimpleData name="Prioridad">ALTA</SimpleData>
            <SimpleData name="OBJECTID_1">97</SimpleData>
          </SchemaData>
        </ExtendedData>
        <Polygon>
          <outerBoundaryIs>
            <LinearRing>
              <coordinates>
                -55.693714999993,-23.8665194999158,0
                -55.6937672002116,-23.8666705007245,0
                -55.6940263005837,-23.8666097998547,0
                -55.694143099783,-23.8665639005916,0
                -55.6943479992328,-23.8668880011829,0
                -55.694602200458,-23.8668377001816,0
                -55.6945759999384,-23.8666081999085,0
                -55.6945718002496,-23.8659816006846,0
                -55.6945498005849,-23.8657866998137,0
                -55.6943147003315,-23.8657792009487,0
                -55.6940503999457,-23.8657566009877,0
                -55.6938595003813,-23.8657430996676,0
                -55.693676099793,-23.8659214003595,0
                -55.6936869998527,-23.8661525996701,0
                -55.6936851000296,-23.8662157002001,0
                -55.693714999993,-23.8665194999158,0
              </coordinates>
            </LinearRing>
          </outerBoundaryIs>
        </Polygon>
      </Placemark>
      <Placemark id="YPEJH__.4">
        <ExtendedData>
          <SchemaData schemaUrl="#YPEJH__.schema">
            <SimpleData name="Cédula">6954209.00000000000</SimpleData>
            <SimpleData name="cedula">6954209</SimpleData>
            <SimpleData name="Cédula_1">6954209.00000000000</SimpleData>
            <SimpleData name="N_">83.00000000000</SimpleData>
            <SimpleData name="Nombres_y_">MARIBEL AGUILAR ALEGRE</SimpleData>
            <SimpleData name="Sexo">Mujer</SimpleData>
            <SimpleData name="Cambio_de_">NO</SimpleData>
            <SimpleData name="Titular_se">NO</SimpleData>
            <SimpleData name="Cédula_Ti">0.00000000000</SimpleData>
            <SimpleData name="Situación">NO</SimpleData>
            <SimpleData name="Comunidad">Campesina</SimpleData>
            <SimpleData name="Modelo_imp">Modelo 4</SimpleData>
            <SimpleData name="Departamen">CANINDEYU</SimpleData>
            <SimpleData name="Distrito">YPEJH?</SimpleData>
            <SimpleData name="Localidad">SAN JUAN</SimpleData>
            <SimpleData name="Teléfono">0976862256</SimpleData>
            <SimpleData name="Vivienda_L">-23.87285870000</SimpleData>
            <SimpleData name="Vivienda_1">-55.44796250000</SimpleData>
            <SimpleData name="Superficie">0.70000000000</SimpleData>
            <SimpleData name="Situaci_1">Pol?gono</SimpleData>
            <SimpleData name="Plantado">SI</SimpleData>
            <SimpleData name="Parcela_La">-23.87353843000</SimpleData>
            <SimpleData name="Parcela_Lo">-55.45108936000</SimpleData>
            <SimpleData name="Grupo_Impl">G2</SimpleData>
            <SimpleData name="Grupo_de_P">H-P5-XX-XX-XX</SimpleData>
            <SimpleData name="Jornales">0.00000000000</SimpleData>
            <SimpleData name="Monto">0.00000000000</SimpleData>
            <SimpleData name="ETAPA_FAO">Mantenimiento A?o 1.1</SimpleData>
            <SimpleData name="Estado_del">Activo</SimpleData>
            <SimpleData name="Adjudicado">SI</SimpleData>
            <SimpleData name="Empresa">Hyh Consultores SRL</SimpleData>
            <SimpleData name="Lote">H</SimpleData>
            <SimpleData name="Monitorear">No</SimpleData>
            <SimpleData name="Fecha_de_M">-</SimpleData>
            <SimpleData name="F__de_pren">-</SimpleData>
            <SimpleData name="Estado_FAO">Monitorear</SimpleData>
            <SimpleData name="Etapa_de_i">Mantenimiento A?o 1.1</SimpleData>
            <SimpleData name="Fecha_visi">2026/09/07</SimpleData>
            <SimpleData name="Cumple_sup">Si</SimpleData>
            <SimpleData name="Estado_mon">-</SimpleData>
            <SimpleData name="Situaci_12">-</SimpleData>
            <SimpleData name="Observaci">-</SimpleData>
            <SimpleData name="Dias_trans">20.51057870370</SimpleData>
            <SimpleData name="Prioridad">ALTA</SimpleData>
            <SimpleData name="OBJECTID_1">83</SimpleData>
          </SchemaData>
        </ExtendedData>
        <Polygon>
          <outerBoundaryIs>
            <LinearRing>
              <coordinates>
                -55.4507367005295,-23.8730366994911,0
                -55.4508067003613,-23.8740833000903,0
                -55.4515016998091,-23.8739232996003,0
                -55.4513433003857,-23.8730533000846,0
                -55.4507367005295,-23.8730366994911,0
              </coordinates>
            </LinearRing>
          </outerBoundaryIs>
        </Polygon>
      </Placemark>
      <Placemark id="YPEJH__.5">
        <ExtendedData>
          <SchemaData schemaUrl="#YPEJH__.schema">
            <SimpleData name="Cédula">4552818.00000000000</SimpleData>
            <SimpleData name="cedula">4552818</SimpleData>
            <SimpleData name="Cédula_1">4552818.00000000000</SimpleData>
            <SimpleData name="N_">101.00000000000</SimpleData>
            <SimpleData name="Nombres_y_">SERGIA PERALTA</SimpleData>
            <SimpleData name="Sexo">Mujer</SimpleData>
            <SimpleData name="Cambio_de_">NO</SimpleData>
            <SimpleData name="Titular_se">NO</SimpleData>
            <SimpleData name="Cédula_Ti">0.00000000000</SimpleData>
            <SimpleData name="Situación">NO</SimpleData>
            <SimpleData name="Comunidad">Ind?gena</SimpleData>
            <SimpleData name="Modelo_imp">Modelo 5</SimpleData>
            <SimpleData name="Departamen">CANINDEYU</SimpleData>
            <SimpleData name="Distrito">YPEJH?</SimpleData>
            <SimpleData name="Localidad">COM INDIG PYPUCU</SimpleData>
            <SimpleData name="Teléfono">0983884886</SimpleData>
            <SimpleData name="Vivienda_L">-23.92304330000</SimpleData>
            <SimpleData name="Vivienda_1">-55.63800330000</SimpleData>
            <SimpleData name="Superficie">0.70000000000</SimpleData>
            <SimpleData name="Situaci_1">Par?metro</SimpleData>
            <SimpleData name="Plantado">SI</SimpleData>
            <SimpleData name="Parcela_La">-23.92431144000</SimpleData>
            <SimpleData name="Parcela_Lo">-55.63756267000</SimpleData>
            <SimpleData name="Grupo_Impl">G2</SimpleData>
            <SimpleData name="Grupo_de_P">H-P7-XX-XX-XX</SimpleData>
            <SimpleData name="Jornales">0.00000000000</SimpleData>
            <SimpleData name="Monto">0.00000000000</SimpleData>
            <SimpleData name="ETAPA_FAO">Mantenimiento A?o 1.1</SimpleData>
            <SimpleData name="Estado_del">Activo</SimpleData>
            <SimpleData name="Adjudicado">SI</SimpleData>
            <SimpleData name="Empresa">Hyh Consultores SRL</SimpleData>
            <SimpleData name="Lote">H</SimpleData>
            <SimpleData name="Monitorear">Si</SimpleData>
            <SimpleData name="Fecha_de_M">-</SimpleData>
            <SimpleData name="F__de_pren">-</SimpleData>
            <SimpleData name="Estado_FAO">Monitorear</SimpleData>
            <SimpleData name="Etapa_de_i">Mantenimiento A?o 1.1</SimpleData>
            <SimpleData name="Fecha_visi">2026/09/23</SimpleData>
            <SimpleData name="Cumple_sup">Si</SimpleData>
            <SimpleData name="Estado_mon">-</SimpleData>
            <SimpleData name="Situaci_12">-</SimpleData>
            <SimpleData name="Observaci">-</SimpleData>
            <SimpleData name="Dias_trans">4.56122685185</SimpleData>
            <SimpleData name="Prioridad">ALTA</SimpleData>
            <SimpleData name="OBJECTID_1">101</SimpleData>
          </SchemaData>
        </ExtendedData>
        <Polygon>
          <outerBoundaryIs>
            <LinearRing>
              <coordinates>
                -55.6370147005259,-23.9239339998286,0
                -55.6376611998798,-23.9249522004287,0
                -55.6381186002159,-23.9246739999532,0
                -55.6374424000973,-23.9236662003156,0
                -55.6370147005259,-23.9239339998286,0
              </coordinates>
            </LinearRing>
          </outerBoundaryIs>
        </Polygon>
      </Placemark>
      <Placemark id="YPEJH__.6">
        <ExtendedData>
          <SchemaData schemaUrl="#YPEJH__.schema">
            <SimpleData name="Cédula">6630606.00000000000</SimpleData>
            <SimpleData name="cedula">6630606</SimpleData>
            <SimpleData name="Cédula_1">6630606.00000000000</SimpleData>
            <SimpleData name="N_">91.00000000000</SimpleData>
            <SimpleData name="Nombres_y_">EUDA LOPEZ RAMIREZ</SimpleData>
            <SimpleData name="Sexo">Mujer</SimpleData>
            <SimpleData name="Cambio_de_">NO</SimpleData>
            <SimpleData name="Titular_se">NO</SimpleData>
            <SimpleData name="Cédula_Ti">0.00000000000</SimpleData>
            <SimpleData name="Situación">NO</SimpleData>
            <SimpleData name="Comunidad">Ind?gena</SimpleData>
            <SimpleData name="Modelo_imp">Modelo 5</SimpleData>
            <SimpleData name="Departamen">CANINDEYU</SimpleData>
            <SimpleData name="Distrito">YPEJH?</SimpleData>
            <SimpleData name="Localidad">COM INDIG PYPUCU</SimpleData>
            <SimpleData name="Teléfono">0986912672</SimpleData>
            <SimpleData name="Vivienda_L">-23.89801790000</SimpleData>
            <SimpleData name="Vivienda_1">-55.65137670000</SimpleData>
            <SimpleData name="Superficie">0.70000000000</SimpleData>
            <SimpleData name="Situaci_1">Par?metro</SimpleData>
            <SimpleData name="Plantado">SI</SimpleData>
            <SimpleData name="Parcela_La">-23.89710474000</SimpleData>
            <SimpleData name="Parcela_Lo">-55.65128150000</SimpleData>
            <SimpleData name="Grupo_Impl">G2</SimpleData>
            <SimpleData name="Grupo_de_P">H-P6-XX-XX-XX</SimpleData>
            <SimpleData name="Jornales">0.00000000000</SimpleData>
            <SimpleData name="Monto">0.00000000000</SimpleData>
            <SimpleData name="ETAPA_FAO">Mantenimiento A?o 1.1</SimpleData>
            <SimpleData name="Estado_del">Activo</SimpleData>
            <SimpleData name="Adjudicado">SI</SimpleData>
            <SimpleData name="Empresa">Hyh Consultores SRL</SimpleData>
            <SimpleData name="Lote">H</SimpleData>
            <SimpleData name="Monitorear">No</SimpleData>
            <SimpleData name="Fecha_de_M">-</SimpleData>
            <SimpleData name="F__de_pren">-</SimpleData>
            <SimpleData name="Estado_FAO">Verificar posible desercion</SimpleData>
            <SimpleData name="Etapa_de_i">Mantenimiento A?o 1.1</SimpleData>
            <SimpleData name="Fecha_visi">2026/09/12</SimpleData>
            <SimpleData name="Cumple_sup">Si</SimpleData>
            <SimpleData name="Estado_mon">-</SimpleData>
            <SimpleData name="Situaci_12">-</SimpleData>
            <SimpleData name="Observaci">Falta de inter?s o no ve el beneficio;Parcela sin cuidados culturales, abandonada</SimpleData>
            <SimpleData name="Dias_trans">15.33473945600</SimpleData>
            <SimpleData name="Prioridad">ALTA</SimpleData>
            <SimpleData name="OBJECTID_1">91</SimpleData>
          </SchemaData>
        </ExtendedData>
        <Polygon>
          <outerBoundaryIs>
            <LinearRing>
              <coordinates>
                -55.6505566999739,-23.8965633000068,0
                -55.6513350000672,-23.8976466999608,0
                -55.6517983001706,-23.8975949999139,0
                -55.6517717004119,-23.8972332996366,0
                -55.6515932995277,-23.8970083003885,0
                -55.6513833004325,-23.8966799996619,0
                -55.650895000296,-23.8966466998315,0
                -55.6505566999739,-23.8965633000068,0
              </coordinates>
            </LinearRing>
          </outerBoundaryIs>
        </Polygon>
      </Placemark>
      <Placemark id="YPEJH__.7">
        <ExtendedData>
          <SchemaData schemaUrl="#YPEJH__.schema">
            <SimpleData name="Cédula">6751799.00000000000</SimpleData>
            <SimpleData name="cedula">6751799</SimpleData>
            <SimpleData name="Cédula_1">6751799.00000000000</SimpleData>
            <SimpleData name="N_">100.00000000000</SimpleData>
            <SimpleData name="Nombres_y_">MARIA BENITEZ GAUTO</SimpleData>
            <SimpleData name="Sexo">Mujer</SimpleData>
            <SimpleData name="Cambio_de_">NO</SimpleData>
            <SimpleData name="Titular_se">NO</SimpleData>
            <SimpleData name="Cédula_Ti">0.00000000000</SimpleData>
            <SimpleData name="Situación">NO</SimpleData>
            <SimpleData name="Comunidad">Ind?gena</SimpleData>
            <SimpleData name="Modelo_imp">Modelo 2</SimpleData>
            <SimpleData name="Departamen">CANINDEYU</SimpleData>
            <SimpleData name="Distrito">YPEJH?</SimpleData>
            <SimpleData name="Localidad">COM INDIG BARRANCO APY</SimpleData>
            <SimpleData name="Teléfono">0985901858</SimpleData>
            <SimpleData name="Vivienda_L">-23.98143790000</SimpleData>
            <SimpleData name="Vivienda_1">-55.86731350000</SimpleData>
            <SimpleData name="Superficie">0.80000000000</SimpleData>
            <SimpleData name="Situaci_1">Pol?gono</SimpleData>
            <SimpleData name="Plantado">SI</SimpleData>
            <SimpleData name="Parcela_La">-23.98118521000</SimpleData>
            <SimpleData name="Parcela_Lo">-55.86774503000</SimpleData>
            <SimpleData name="Grupo_Impl">G2</SimpleData>
            <SimpleData name="Grupo_de_P">H-P8-XX-XX-XX</SimpleData>
            <SimpleData name="Jornales">0.00000000000</SimpleData>
            <SimpleData name="Monto">0.00000000000</SimpleData>
            <SimpleData name="ETAPA_FAO">Mantenimiento A?o 1.1</SimpleData>
            <SimpleData name="Estado_del">Activo</SimpleData>
            <SimpleData name="Adjudicado">SI</SimpleData>
            <SimpleData name="Empresa">Hyh Consultores SRL</SimpleData>
            <SimpleData name="Lote">H</SimpleData>
            <SimpleData name="Monitorear">-</SimpleData>
            <SimpleData name="Fecha_de_M">-</SimpleData>
            <SimpleData name="F__de_pren">-</SimpleData>
            <SimpleData name="Estado_FAO">Verificar posible desercion</SimpleData>
            <SimpleData name="Etapa_de_i">Mantenimiento A?o 1.1</SimpleData>
            <SimpleData name="Fecha_visi">2026/09/21</SimpleData>
            <SimpleData name="Cumple_sup">Si</SimpleData>
            <SimpleData name="Estado_mon">-</SimpleData>
            <SimpleData name="Situaci_12">-</SimpleData>
            <SimpleData name="Observaci">Falta de inter?s o no ve el beneficio;En el momento de la visita de la parcela se observ?, que la parcela est? en total abandono, tiene solo pastizal y sin ning?n cuidado por parte de la beneficiaria motivo por el cual ella  decidi? con la deserci?</SimpleData>
            <SimpleData name="Dias_trans">6.34350608796</SimpleData>
            <SimpleData name="Prioridad">ALTA</SimpleData>
            <SimpleData name="OBJECTID_1">100</SimpleData>
          </SchemaData>
        </ExtendedData>
        <Polygon>
          <outerBoundaryIs>
            <LinearRing>
              <coordinates>
                -55.8678404993368,-23.9807694267987,0
                -55.8676619995141,-23.9808017999549,0
                -55.8676486289172,-23.9807682075426,0
                -55.8671126992084,-23.9807647998367,0
                -55.8676200996001,-23.9818298002838,0
                -55.868234299516,-23.981445899856,0
                -55.8681982999276,-23.9807717003065,0
                -55.8678404993368,-23.9807694267987,0
              </coordinates>
            </LinearRing>
          </outerBoundaryIs>
        </Polygon>
      </Placemark>
      <Placemark id="YPEJH__.8">
        <ExtendedData>
          <SchemaData schemaUrl="#YPEJH__.schema">
            <SimpleData name="Cédula">8451882.00000000000</SimpleData>
            <SimpleData name="cedula">8451882</SimpleData>
            <SimpleData name="Cédula_1">8451882.00000000000</SimpleData>
            <SimpleData name="N_">103.00000000000</SimpleData>
            <SimpleData name="Nombres_y_">GERMINA BENITEZ PERALTA</SimpleData>
            <SimpleData name="Sexo">Mujer</SimpleData>
            <SimpleData name="Cambio_de_">NO</SimpleData>
            <SimpleData name="Titular_se">NO</SimpleData>
            <SimpleData name="Cédula_Ti">0.00000000000</SimpleData>
            <SimpleData name="Situación">NO</SimpleData>
            <SimpleData name="Comunidad">Ind?gena</SimpleData>
            <SimpleData name="Modelo_imp">Modelo 5</SimpleData>
            <SimpleData name="Departamen">CANINDEYU</SimpleData>
            <SimpleData name="Distrito">YPEJH?</SimpleData>
            <SimpleData name="Localidad">COM INDIG PYPUCU</SimpleData>
            <SimpleData name="Teléfono">0985192562</SimpleData>
            <SimpleData name="Vivienda_L">-23.92400170000</SimpleData>
            <SimpleData name="Vivienda_1">-55.64033330000</SimpleData>
            <SimpleData name="Superficie">0.70000000000</SimpleData>
            <SimpleData name="Situaci_1">Par?metro</SimpleData>
            <SimpleData name="Plantado">SI</SimpleData>
            <SimpleData name="Parcela_La">-23.92477948000</SimpleData>
            <SimpleData name="Parcela_Lo">-55.63698093000</SimpleData>
            <SimpleData name="Grupo_Impl">G2</SimpleData>
            <SimpleData name="Grupo_de_P">H-P8-XX-XX-XX</SimpleData>
            <SimpleData name="Jornales">0.00000000000</SimpleData>
            <SimpleData name="Monto">0.00000000000</SimpleData>
            <SimpleData name="ETAPA_FAO">Mantenimiento A?o 1.1</SimpleData>
            <SimpleData name="Estado_del">Activo</SimpleData>
            <SimpleData name="Adjudicado">SI</SimpleData>
            <SimpleData name="Empresa">Hyh Consultores SRL</SimpleData>
            <SimpleData name="Lote">H</SimpleData>
            <SimpleData name="Monitorear">Si</SimpleData>
            <SimpleData name="Fecha_de_M">-</SimpleData>
            <SimpleData name="F__de_pren">-</SimpleData>
            <SimpleData name="Estado_FAO">Monitorear</SimpleData>
            <SimpleData name="Etapa_de_i">Mantenimiento A?o 1.1</SimpleData>
            <SimpleData name="Fecha_visi">2026/09/23</SimpleData>
            <SimpleData name="Cumple_sup">Si</SimpleData>
            <SimpleData name="Estado_mon">-</SimpleData>
            <SimpleData name="Situaci_12">-</SimpleData>
            <SimpleData name="Observaci">-</SimpleData>
            <SimpleData name="Dias_trans">4.56128472222</SimpleData>
            <SimpleData name="Prioridad">ALTA</SimpleData>
            <SimpleData name="OBJECTID_1">103</SimpleData>
          </SchemaData>
        </ExtendedData>
        <Polygon>
          <outerBoundaryIs>
            <LinearRing>
              <coordinates>
                -55.6366275495701,-23.9241647257862,0
                -55.6368826003272,-23.9244840996479,0
                -55.6364476002678,-23.924795699933,0
                -55.6364554004128,-23.9248904004067,0
                -55.636696799957,-23.9252564999415,0
                -55.6368915003702,-23.9254300000386,0
                -55.6375817999757,-23.9249885004885,0
                -55.6369244426635,-23.9239698149473,0
                -55.6366275495701,-23.9241647257862,0
              </coordinates>
            </LinearRing>
          </outerBoundaryIs>
        </Polygon>
      </Placemark>
      <Placemark id="YPEJH__.9">
        <ExtendedData>
          <SchemaData schemaUrl="#YPEJH__.schema">
            <SimpleData name="Cédula">5829456.00000000000</SimpleData>
            <SimpleData name="cedula">5829456</SimpleData>
            <SimpleData name="Cédula_1">5829456.00000000000</SimpleData>
            <SimpleData name="N_">84.00000000000</SimpleData>
            <SimpleData name="Nombres_y_">VICTORIANA RAMIREZ FERNANDEZ</SimpleData>
            <SimpleData name="Sexo">Mujer</SimpleData>
            <SimpleData name="Cambio_de_">NO</SimpleData>
            <SimpleData name="Titular_se">NO</SimpleData>
            <SimpleData name="Cédula_Ti">0.00000000000</SimpleData>
            <SimpleData name="Situación">NO</SimpleData>
            <SimpleData name="Comunidad">Ind?gena</SimpleData>
            <SimpleData name="Modelo_imp">Modelo 5</SimpleData>
            <SimpleData name="Departamen">CANINDEYU</SimpleData>
            <SimpleData name="Distrito">YPEJH?</SimpleData>
            <SimpleData name="Localidad">COM INDIG ITANARA-PARIRI</SimpleData>
            <SimpleData name="Teléfono">0982079023</SimpleData>
            <SimpleData name="Vivienda_L">-23.83794770000</SimpleData>
            <SimpleData name="Vivienda_1">-55.68509480000</SimpleData>
            <SimpleData name="Superficie">0.70000000000</SimpleData>
            <SimpleData name="Situaci_1">Par?metro</SimpleData>
            <SimpleData name="Plantado">SI</SimpleData>
            <SimpleData name="Parcela_La">-23.83877383000</SimpleData>
            <SimpleData name="Parcela_Lo">-55.68495961000</SimpleData>
            <SimpleData name="Grupo_Impl">G2</SimpleData>
            <SimpleData name="Grupo_de_P">H-P7-XX-XX-XX</SimpleData>
            <SimpleData name="Jornales">0.00000000000</SimpleData>
            <SimpleData name="Monto">0.00000000000</SimpleData>
            <SimpleData name="ETAPA_FAO">Mantenimiento A?o 1.1</SimpleData>
            <SimpleData name="Estado_del">Activo</SimpleData>
            <SimpleData name="Adjudicado">SI</SimpleData>
            <SimpleData name="Empresa">Hyh Consultores SRL</SimpleData>
            <SimpleData name="Lote">H</SimpleData>
            <SimpleData name="Monitorear">Si</SimpleData>
            <SimpleData name="Fecha_de_M">-</SimpleData>
            <SimpleData name="F__de_pren">-</SimpleData>
            <SimpleData name="Estado_FAO">Monitorear</SimpleData>
            <SimpleData name="Etapa_de_i">Mantenimiento A?o 1.1</SimpleData>
            <SimpleData name="Fecha_visi">2026/09/26</SimpleData>
            <SimpleData name="Cumple_sup">Si</SimpleData>
            <SimpleData name="Estado_mon">-</SimpleData>
            <SimpleData name="Situaci_12">-</SimpleData>
            <SimpleData name="Observaci">-</SimpleData>
            <SimpleData name="Dias_trans">1.54222222222</SimpleData>
            <SimpleData name="Prioridad">ALTA</SimpleData>
            <SimpleData name="OBJECTID_1">84</SimpleData>
          </SchemaData>
        </ExtendedData>
        <Polygon>
          <outerBoundaryIs>
            <LinearRing>
              <coordinates>
                -55.6846836996532,-23.8387265000181,0
                -55.6845162996724,-23.8392976006407,0
                -55.6849926995661,-23.83957930021,0
                -55.6851934994498,-23.8394116994983,0
                -55.6851749998423,-23.839293300531,0
                -55.6849285001073,-23.8391682001929,0
                -55.6849019999547,-23.8389705006295,0
                -55.6848465992026,-23.8389256004545,0
                -55.6848667990286,-23.8388978006602,0
                -55.6850671996262,-23.8389125009246,0
                -55.685486300031,-23.8378668002844,0
                -55.6849774994472,-23.8381426001358,0
                -55.6846836996532,-23.8387265000181,0
              </coordinates>
            </LinearRing>
          </outerBoundaryIs>
        </Polygon>
      </Placemark>
      <Placemark id="YPEJH__.10">
        <ExtendedData>
          <SchemaData schemaUrl="#YPEJH__.schema">
            <SimpleData name="Cédula">6779643.00000000000</SimpleData>
            <SimpleData name="cedula">6779643</SimpleData>
            <SimpleData name="Cédula_1">6779643.00000000000</SimpleData>
            <SimpleData name="N_">264.00000000000</SimpleData>
            <SimpleData name="Nombres_y_">PLACIDO PACHER CABRAL</SimpleData>
            <SimpleData name="Sexo">Hombre</SimpleData>
            <SimpleData name="Cambio_de_">NO</SimpleData>
            <SimpleData name="Titular_se">NO</SimpleData>
            <SimpleData name="Cédula_Ti">0.00000000000</SimpleData>
            <SimpleData name="Situación">NO</SimpleData>
            <SimpleData name="Comunidad">Ind?gena</SimpleData>
            <SimpleData name="Modelo_imp">Modelo 1</SimpleData>
            <SimpleData name="Departamen">CANINDEYU</SimpleData>
            <SimpleData name="Distrito">YPEJH?</SimpleData>
            <SimpleData name="Localidad">COM INDIG KABAYU PASO</SimpleData>
            <SimpleData name="Teléfono">ND</SimpleData>
            <SimpleData name="Vivienda_L">-24.00076330000</SimpleData>
            <SimpleData name="Vivienda_1">-55.86977670000</SimpleData>
            <SimpleData name="Superficie">0.80000000000</SimpleData>
            <SimpleData name="Situaci_1">Par?metro</SimpleData>
            <SimpleData name="Plantado">SI</SimpleData>
            <SimpleData name="Parcela_La">-24.00056337000</SimpleData>
            <SimpleData name="Parcela_Lo">-55.87063425000</SimpleData>
            <SimpleData name="Grupo_Impl">G2</SimpleData>
            <SimpleData name="Grupo_de_P">H-P8-XX-XX-XX</SimpleData>
            <SimpleData name="Jornales">0.00000000000</SimpleData>
            <SimpleData name="Monto">0.00000000000</SimpleData>
            <SimpleData name="ETAPA_FAO">Mantenimiento A?o 1.1</SimpleData>
            <SimpleData name="Estado_del">Activo</SimpleData>
            <SimpleData name="Adjudicado">SI</SimpleData>
            <SimpleData name="Empresa">Hyh Consultores SRL</SimpleData>
            <SimpleData name="Lote">H</SimpleData>
            <SimpleData name="Monitorear">-</SimpleData>
            <SimpleData name="Fecha_de_M">-</SimpleData>
            <SimpleData name="F__de_pren">-</SimpleData>
            <SimpleData name="Estado_FAO">Verificar posible desercion</SimpleData>
            <SimpleData name="Etapa_de_i">Mantenimiento A?o 1.1</SimpleData>
            <SimpleData name="Fecha_visi">2026/08/29</SimpleData>
            <SimpleData name="Cumple_sup">Si</SimpleData>
            <SimpleData name="Estado_mon">-</SimpleData>
            <SimpleData name="Situaci_12">-</SimpleData>
            <SimpleData name="Observaci">-</SimpleData>
            <SimpleData name="Dias_trans">29.38963612270</SimpleData>
            <SimpleData name="Prioridad">ALTA</SimpleData>
            <SimpleData name="OBJECTID_1">264</SimpleData>
          </SchemaData>
        </ExtendedData>
        <Polygon>
          <outerBoundaryIs>
            <LinearRing>
              <coordinates>
                -55.870413999591,-24.0001782000051,0
                -55.8698932991712,-24.000980000402,0
                -55.871321499192,-24.0007765005347,0
                -55.870904999493,-24.0000767001283,0
                -55.870413999591,-24.0001782000051,0
              </coordinates>
            </LinearRing>
          </outerBoundaryIs>
        </Polygon>
      </Placemark>
      <Placemark id="YPEJH__.11">
        <ExtendedData>
          <SchemaData schemaUrl="#YPEJH__.schema">
            <SimpleData name="Cédula">5454028.00000000000</SimpleData>
            <SimpleData name="cedula">5454028</SimpleData>
            <SimpleData name="Cédula_1">5454028.00000000000</SimpleData>
            <SimpleData name="N_">126.00000000000</SimpleData>
            <SimpleData name="Nombres_y_">ISABEL RAMIREZ ROA</SimpleData>
            <SimpleData name="Sexo">Mujer</SimpleData>
            <SimpleData name="Cambio_de_">NO</SimpleData>
            <SimpleData name="Titular_se">NO</SimpleData>
            <SimpleData name="Cédula_Ti">0.00000000000</SimpleData>
            <SimpleData name="Situación">NO</SimpleData>
            <SimpleData name="Comunidad">Ind?gena</SimpleData>
            <SimpleData name="Modelo_imp">Modelo 5</SimpleData>
            <SimpleData name="Departamen">CANINDEYU</SimpleData>
            <SimpleData name="Distrito">YPEJH?</SimpleData>
            <SimpleData name="Localidad">COM INDIG PYPUCU</SimpleData>
            <SimpleData name="Teléfono">0986912672</SimpleData>
            <SimpleData name="Vivienda_L">-23.89809170000</SimpleData>
            <SimpleData name="Vivienda_1">-55.65159500000</SimpleData>
            <SimpleData name="Superficie">0.70000000000</SimpleData>
            <SimpleData name="Situaci_1">Par?metro</SimpleData>
            <SimpleData name="Plantado">SI</SimpleData>
            <SimpleData name="Parcela_La">-23.89715312000</SimpleData>
            <SimpleData name="Parcela_Lo">-55.65067415000</SimpleData>
            <SimpleData name="Grupo_Impl">G2</SimpleData>
            <SimpleData name="Grupo_de_P">H-P8-XX-XX-XX</SimpleData>
            <SimpleData name="Jornales">0.00000000000</SimpleData>
            <SimpleData name="Monto">0.00000000000</SimpleData>
            <SimpleData name="ETAPA_FAO">Mantenimiento A?o 1.1</SimpleData>
            <SimpleData name="Estado_del">Activo</SimpleData>
            <SimpleData name="Adjudicado">SI</SimpleData>
            <SimpleData name="Empresa">Hyh Consultores SRL</SimpleData>
            <SimpleData name="Lote">H</SimpleData>
            <SimpleData name="Monitorear">No</SimpleData>
            <SimpleData name="Fecha_de_M">-</SimpleData>
            <SimpleData name="F__de_pren">-</SimpleData>
            <SimpleData name="Estado_FAO">Verificar posible desercion</SimpleData>
            <SimpleData name="Etapa_de_i">Mantenimiento A?o 1.1</SimpleData>
            <SimpleData name="Fecha_visi">2026/09/17</SimpleData>
            <SimpleData name="Cumple_sup">Si</SimpleData>
            <SimpleData name="Estado_mon">-</SimpleData>
            <SimpleData name="Situaci_12">-</SimpleData>
            <SimpleData name="Observaci">Falta de inter?s o no ve el beneficio;Parcela abandonada y quemada causando perdida de plantas, al conversar con la participante reconoci? que ella misma prendi? fuego en su parcela</SimpleData>
            <SimpleData name="Dias_trans">10.43521031250</SimpleData>
            <SimpleData name="Prioridad">ALTA</SimpleData>
            <SimpleData name="OBJECTID_1">126</SimpleData>
          </SchemaData>
        </ExtendedData>
        <Polygon>
          <outerBoundaryIs>
            <LinearRing>
              <coordinates>
                -55.6500250000614,-23.8966783010384,0
                -55.6508283005018,-23.8977583006248,0
                -55.6509699005022,-23.8977096001402,0
                -55.6513184994612,-23.8976383996285,0
                -55.6505462002374,-23.8965649011447,0
                -55.6500250000614,-23.8966783010384,0
              </coordinates>
            </LinearRing>
          </outerBoundaryIs>
        </Polygon>
      </Placemark>
      <Placemark id="YPEJH__.12">
        <ExtendedData>
          <SchemaData schemaUrl="#YPEJH__.schema">
            <SimpleData name="Cédula">5885620.00000000000</SimpleData>
            <SimpleData name="cedula">5885620</SimpleData>
            <SimpleData name="Cédula_1">5885620.00000000000</SimpleData>
            <SimpleData name="N_">88.00000000000</SimpleData>
            <SimpleData name="Nombres_y_">TERENCIA RECALDE BENITEZ</SimpleData>
            <SimpleData name="Sexo">Mujer</SimpleData>
            <SimpleData name="Cambio_de_">NO</SimpleData>
            <SimpleData name="Titular_se">NO</SimpleData>
            <SimpleData name="Cédula_Ti">0.00000000000</SimpleData>
            <SimpleData name="Situación">NO</SimpleData>
            <SimpleData name="Comunidad">Ind?gena</SimpleData>
            <SimpleData name="Modelo_imp">Modelo 2</SimpleData>
            <SimpleData name="Departamen">CANINDEYU</SimpleData>
            <SimpleData name="Distrito">YPEJH?</SimpleData>
            <SimpleData name="Localidad">COM INDIG ITANARA-PARIRI</SimpleData>
            <SimpleData name="Teléfono">0984587478</SimpleData>
            <SimpleData name="Vivienda_L">-23.82672620000</SimpleData>
            <SimpleData name="Vivienda_1">-55.69045990000</SimpleData>
            <SimpleData name="Superficie">0.80000000000</SimpleData>
            <SimpleData name="Situaci_1">Par?metro</SimpleData>
            <SimpleData name="Plantado">SI</SimpleData>
            <SimpleData name="Parcela_La">-23.82573010000</SimpleData>
            <SimpleData name="Parcela_Lo">-55.68876182000</SimpleData>
            <SimpleData name="Grupo_Impl">G2</SimpleData>
            <SimpleData name="Grupo_de_P">H-P8-XX-XX-XX</SimpleData>
            <SimpleData name="Jornales">0.00000000000</SimpleData>
            <SimpleData name="Monto">0.00000000000</SimpleData>
            <SimpleData name="ETAPA_FAO">Mantenimiento A?o 1.1</SimpleData>
            <SimpleData name="Estado_del">Activo</SimpleData>
            <SimpleData name="Adjudicado">SI</SimpleData>
            <SimpleData name="Empresa">Hyh Consultores SRL</SimpleData>
            <SimpleData name="Lote">H</SimpleData>
            <SimpleData name="Monitorear">Si</SimpleData>
            <SimpleData name="Fecha_de_M">-</SimpleData>
            <SimpleData name="F__de_pren">-</SimpleData>
            <SimpleData name="Estado_FAO">Monitorear</SimpleData>
            <SimpleData name="Etapa_de_i">Mantenimiento A?o 1.1</SimpleData>
            <SimpleData name="Fecha_visi">2026/09/25</SimpleData>
            <SimpleData name="Cumple_sup">Si</SimpleData>
            <SimpleData name="Estado_mon">-</SimpleData>
            <SimpleData name="Situaci_12">-</SimpleData>
            <SimpleData name="Observaci">-</SimpleData>
            <SimpleData name="Dias_trans">2.89908564815</SimpleData>
            <SimpleData name="Prioridad">ALTA</SimpleData>
            <SimpleData name="OBJECTID_1">88</SimpleData>
          </SchemaData>
        </ExtendedData>
        <Polygon>
          <outerBoundaryIs>
            <LinearRing>
              <coordinates>
                -55.6890017997368,-23.8263276007926,0
                -55.6891468995318,-23.8264074007722,0
                -55.6893558997619,-23.8262522011903,0
                -55.6892286998532,-23.8260672001633,0
                -55.689164699804,-23.8259861004183,0
                -55.6892296000325,-23.8255821009409,0
                -55.6889665999485,-23.8252784007008,0
                -55.6888150001552,-23.8252518004564,0
                -55.6884729002183,-23.8252213009528,0
                -55.6881914994716,-23.8254844002405,0
                -55.688034199805,-23.8256550999844,0
                -55.6886106994332,-23.8260321005209,0
                -55.6887942004529,-23.8260820002095,0
                -55.6890017997368,-23.8263276007926,0
              </coordinates>
            </LinearRing>
          </outerBoundaryIs>
        </Polygon>
      </Placemark>
      <Placemark id="YPEJH__.13">
        <ExtendedData>
          <SchemaData schemaUrl="#YPEJH__.schema">
            <SimpleData name="Cédula">8057135.00000000000</SimpleData>
            <SimpleData name="cedula">8057135</SimpleData>
            <SimpleData name="Cédula_1">8057135.00000000000</SimpleData>
            <SimpleData name="N_">89.00000000000</SimpleData>
            <SimpleData name="Nombres_y_">MIGUEL MENDOZA CA?ETE</SimpleData>
            <SimpleData name="Sexo">Hombre</SimpleData>
            <SimpleData name="Cambio_de_">NO</SimpleData>
            <SimpleData name="Titular_se">NO</SimpleData>
            <SimpleData name="Cédula_Ti">0.00000000000</SimpleData>
            <SimpleData name="Situación">NO</SimpleData>
            <SimpleData name="Comunidad">Ind?gena</SimpleData>
            <SimpleData name="Modelo_imp">Modelo 5</SimpleData>
            <SimpleData name="Departamen">CANINDEYU</SimpleData>
            <SimpleData name="Distrito">YPEJH?</SimpleData>
            <SimpleData name="Localidad">COM INDIG YVY KATU</SimpleData>
            <SimpleData name="Teléfono">0986817066</SimpleData>
            <SimpleData name="Vivienda_L">-23.96815760000</SimpleData>
            <SimpleData name="Vivienda_1">-55.85427840000</SimpleData>
            <SimpleData name="Superficie">0.70000000000</SimpleData>
            <SimpleData name="Situaci_1">Par?metro</SimpleData>
            <SimpleData name="Plantado">SI</SimpleData>
            <SimpleData name="Parcela_La">-23.96753091000</SimpleData>
            <SimpleData name="Parcela_Lo">-55.85314743000</SimpleData>
            <SimpleData name="Grupo_Impl">G2</SimpleData>
            <SimpleData name="Grupo_de_P">H-P7-XX-XX-XX</SimpleData>
            <SimpleData name="Jornales">0.00000000000</SimpleData>
            <SimpleData name="Monto">0.00000000000</SimpleData>
            <SimpleData name="ETAPA_FAO">Mantenimiento A?o 1.1</SimpleData>
            <SimpleData name="Estado_del">Activo</SimpleData>
            <SimpleData name="Adjudicado">SI</SimpleData>
            <SimpleData name="Empresa">Hyh Consultores SRL</SimpleData>
            <SimpleData name="Lote">H</SimpleData>
            <SimpleData name="Monitorear">No</SimpleData>
            <SimpleData name="Fecha_de_M">14/7/2026</SimpleData>
            <SimpleData name="F__de_pren">70</SimpleData>
            <SimpleData name="Estado_FAO">Monitorear reposicion</SimpleData>
            <SimpleData name="Etapa_de_i">Mantenimiento A?o 1.1</SimpleData>
            <SimpleData name="Fecha_visi">2026/09/26</SimpleData>
            <SimpleData name="Cumple_sup">Si</SimpleData>
            <SimpleData name="Estado_mon">No cumple</SimpleData>
            <SimpleData name="Situaci_12">No se observan reposici?n de c?tricos, se recomienda realizar la reposici?n de la totalidad, as? mismo es ideal realizar la poda y ense?ar a los participantes a como realizarlo despu?s</SimpleData>
            <SimpleData name="Observaci">-</SimpleData>
            <SimpleData name="Dias_trans">1.49583333333</SimpleData>
            <SimpleData name="Prioridad">ALTA</SimpleData>
            <SimpleData name="OBJECTID_1">89</SimpleData>
          </SchemaData>
        </ExtendedData>
        <Polygon>
          <outerBoundaryIs>
            <LinearRing>
              <coordinates>
                -55.8531750998644,-23.9680541000235,0
                -55.853304599902,-23.968118499459,0
                -55.8535933003206,-23.9677233002845,0
                -55.853648300463,-23.9676750000397,0
                -55.8536800998744,-23.9675198998156,0
                -55.8534401997962,-23.9673003000351,0
                -55.8531140000127,-23.9668995006228,0
                -55.8528360998808,-23.9671474995055,0
                -55.8527310000389,-23.9673352002718,0
                -55.8526186000983,-23.9676453993682,0
                -55.8529664998804,-23.9678947992836,0
                -55.8531750998644,-23.9680541000235,0
              </coordinates>
            </LinearRing>
          </outerBoundaryIs>
        </Polygon>
      </Placemark>
      <Placemark id="YPEJH__.14">
        <ExtendedData>
          <SchemaData schemaUrl="#YPEJH__.schema">
            <SimpleData name="Cédula">6762931.00000000000</SimpleData>
            <SimpleData name="cedula">6762931</SimpleData>
            <SimpleData name="Cédula_1">6762931.00000000000</SimpleData>
            <SimpleData name="N_">93.00000000000</SimpleData>
            <SimpleData name="Nombres_y_">ROSA ARCE BENITEZ</SimpleData>
            <SimpleData name="Sexo">Mujer</SimpleData>
            <SimpleData name="Cambio_de_">NO</SimpleData>
            <SimpleData name="Titular_se">NO</SimpleData>
            <SimpleData name="Cédula_Ti">0.00000000000</SimpleData>
            <SimpleData name="Situación">NO</SimpleData>
            <SimpleData name="Comunidad">Ind?gena</SimpleData>
            <SimpleData name="Modelo_imp">Modelo 5</SimpleData>
            <SimpleData name="Departamen">CANINDEYU</SimpleData>
            <SimpleData name="Distrito">YPEJH?</SimpleData>
            <SimpleData name="Localidad">COM INDIG YVY KATU</SimpleData>
            <SimpleData name="Teléfono">0985375468</SimpleData>
            <SimpleData name="Vivienda_L">-23.97089500000</SimpleData>
            <SimpleData name="Vivienda_1">-55.86126170000</SimpleData>
            <SimpleData name="Superficie">0.70000000000</SimpleData>
            <SimpleData name="Situaci_1">Par?metro</SimpleData>
            <SimpleData name="Plantado">SI</SimpleData>
            <SimpleData name="Parcela_La">-23.97029517000</SimpleData>
            <SimpleData name="Parcela_Lo">-55.86329077000</SimpleData>
            <SimpleData name="Grupo_Impl">G2</SimpleData>
            <SimpleData name="Grupo_de_P">H-P7-XX-XX-XX</SimpleData>
            <SimpleData name="Jornales">0.00000000000</SimpleData>
            <SimpleData name="Monto">0.00000000000</SimpleData>
            <SimpleData name="ETAPA_FAO">Mantenimiento A?o 1.1</SimpleData>
            <SimpleData name="Estado_del">Activo</SimpleData>
            <SimpleData name="Adjudicado">SI</SimpleData>
            <SimpleData name="Empresa">Hyh Consultores SRL</SimpleData>
            <SimpleData name="Lote">H</SimpleData>
            <SimpleData name="Monitorear">No</SimpleData>
            <SimpleData name="Fecha_de_M">14/7/2026</SimpleData>
            <SimpleData name="F__de_pren">50</SimpleData>
            <SimpleData name="Estado_FAO">Monitorear reposicion</SimpleData>
            <SimpleData name="Etapa_de_i">Mantenimiento A?o 1.1</SimpleData>
            <SimpleData name="Fecha_visi">2026/09/26</SimpleData>
            <SimpleData name="Cumple_sup">Si</SimpleData>
            <SimpleData name="Estado_mon">No cumple</SimpleData>
            <SimpleData name="Situaci_12">Parcela Agroforestal totalmente enmalezada, se recomienda realizar limpieza yhacer coronado en plantas, faltan reposici?n de al menos 50 % de c?tricos, no se observan  reposici?n alguna, se recomienda  realizar poda y aplicaci?ndeoxicloruro. Se obser</SimpleData>
            <SimpleData name="Observaci">-</SimpleData>
            <SimpleData name="Dias_trans">1.25581018518</SimpleData>
            <SimpleData name="Prioridad">ALTA</SimpleData>
            <SimpleData name="OBJECTID_1">93</SimpleData>
          </SchemaData>
        </ExtendedData>
        <Polygon>
          <outerBoundaryIs>
            <LinearRing>
              <coordinates>
                -55.8627033003429,-23.9704899995839,0
                -55.8636000003934,-23.9707550004447,0
                -55.8638900001434,-23.9701066998952,0
                -55.8629665996505,-23.9698350999303,0
                -55.8627033003429,-23.9704899995839,0
              </coordinates>
            </LinearRing>
          </outerBoundaryIs>
        </Polygon>
      </Placemark>
      <Placemark id="YPEJH__.15">
        <ExtendedData>
          <SchemaData schemaUrl="#YPEJH__.schema">
            <SimpleData name="Cédula">6747927.00000000000</SimpleData>
            <SimpleData name="cedula">6747927</SimpleData>
            <SimpleData name="Cédula_1">6747927.00000000000</SimpleData>
            <SimpleData name="N_">99.00000000000</SimpleData>
            <SimpleData name="Nombres_y_">TRANQUILINA ESPINOLA FERNANDEZ</SimpleData>
            <SimpleData name="Sexo">Mujer</SimpleData>
            <SimpleData name="Cambio_de_">NO</SimpleData>
            <SimpleData name="Titular_se">NO</SimpleData>
            <SimpleData name="Cédula_Ti">0.00000000000</SimpleData>
            <SimpleData name="Situación">NO</SimpleData>
            <SimpleData name="Comunidad">Ind?gena</SimpleData>
            <SimpleData name="Modelo_imp">Modelo 1</SimpleData>
            <SimpleData name="Departamen">CANINDEYU</SimpleData>
            <SimpleData name="Distrito">YPEJH?</SimpleData>
            <SimpleData name="Localidad">COM INDIG KABAYU PASO</SimpleData>
            <SimpleData name="Teléfono">ND</SimpleData>
            <SimpleData name="Vivienda_L">-24.00615570000</SimpleData>
            <SimpleData name="Vivienda_1">-55.86900140000</SimpleData>
            <SimpleData name="Superficie">0.80000000000</SimpleData>
            <SimpleData name="Situaci_1">Pol?gono</SimpleData>
            <SimpleData name="Plantado">SI</SimpleData>
            <SimpleData name="Parcela_La">-24.00706507000</SimpleData>
            <SimpleData name="Parcela_Lo">-55.87334657000</SimpleData>
            <SimpleData name="Grupo_Impl">G2</SimpleData>
            <SimpleData name="Grupo_de_P">H-P3-XX-XX-XX</SimpleData>
            <SimpleData name="Jornales">0.00000000000</SimpleData>
            <SimpleData name="Monto">0.00000000000</SimpleData>
            <SimpleData name="ETAPA_FAO">Mantenimiento A?o 1.1</SimpleData>
            <SimpleData name="Estado_del">Activo</SimpleData>
            <SimpleData name="Adjudicado">SI</SimpleData>
            <SimpleData name="Empresa">Hyh Consultores SRL</SimpleData>
            <SimpleData name="Lote">H</SimpleData>
            <SimpleData name="Monitorear">-</SimpleData>
            <SimpleData name="Fecha_de_M">-</SimpleData>
            <SimpleData name="F__de_pren">-</SimpleData>
            <SimpleData name="Estado_FAO">Verificar posible desercion</SimpleData>
            <SimpleData name="Etapa_de_i">Mantenimiento A?o 1.1</SimpleData>
            <SimpleData name="Fecha_visi">2026/09/07</SimpleData>
            <SimpleData name="Cumple_sup">Si</SimpleData>
            <SimpleData name="Estado_mon">-</SimpleData>
            <SimpleData name="Situaci_12">-</SimpleData>
            <SimpleData name="Observaci">Falta de inter?s o no ve el beneficio;Parcela abandonada</SimpleData>
            <SimpleData name="Dias_trans">20.56944875000</SimpleData>
            <SimpleData name="Prioridad">ALTA</SimpleData>
            <SimpleData name="OBJECTID_1">99</SimpleData>
          </SchemaData>
        </ExtendedData>
        <Polygon>
          <outerBoundaryIs>
            <LinearRing>
              <coordinates>
                -55.8729021993214,-24.0062438996363,0
                -55.8733349998656,-24.0078752999572,0
                -55.8738250001022,-24.007778299831,0
                -55.8732817004542,-24.0062099998445,0
                -55.8729021993214,-24.0062438996363,0
              </coordinates>
            </LinearRing>
          </outerBoundaryIs>
        </Polygon>
      </Placemark>
      <Placemark id="YPEJH__.16">
        <ExtendedData>
          <SchemaData schemaUrl="#YPEJH__.schema">
            <SimpleData name="Cédula">8463681.00000000000</SimpleData>
            <SimpleData name="cedula">8463681</SimpleData>
            <SimpleData name="Cédula_1">8463681.00000000000</SimpleData>
            <SimpleData name="N_">92.00000000000</SimpleData>
            <SimpleData name="Nombres_y_">CELIA LOPEZ BENITEZ</SimpleData>
            <SimpleData name="Sexo">Mujer</SimpleData>
            <SimpleData name="Cambio_de_">NO</SimpleData>
            <SimpleData name="Titular_se">NO</SimpleData>
            <SimpleData name="Cédula_Ti">0.00000000000</SimpleData>
            <SimpleData name="Situación">NO</SimpleData>
            <SimpleData name="Comunidad">Ind?gena</SimpleData>
            <SimpleData name="Modelo_imp">Modelo 5</SimpleData>
            <SimpleData name="Departamen">CANINDEYU</SimpleData>
            <SimpleData name="Distrito">YPEJH?</SimpleData>
            <SimpleData name="Localidad">COM INDIG PYPUCU</SimpleData>
            <SimpleData name="Teléfono">0983405406</SimpleData>
            <SimpleData name="Vivienda_L">-23.89848700000</SimpleData>
            <SimpleData name="Vivienda_1">-55.64487450000</SimpleData>
            <SimpleData name="Superficie">0.70000000000</SimpleData>
            <SimpleData name="Situaci_1">Par?metro</SimpleData>
            <SimpleData name="Plantado">SI</SimpleData>
            <SimpleData name="Parcela_La">-23.89725086000</SimpleData>
            <SimpleData name="Parcela_Lo">-55.64512879000</SimpleData>
            <SimpleData name="Grupo_Impl">G2</SimpleData>
            <SimpleData name="Grupo_de_P">H-P6-XX-XX-XX</SimpleData>
            <SimpleData name="Jornales">0.00000000000</SimpleData>
            <SimpleData name="Monto">0.00000000000</SimpleData>
            <SimpleData name="ETAPA_FAO">Mantenimiento A?o 1.1</SimpleData>
            <SimpleData name="Estado_del">Activo</SimpleData>
            <SimpleData name="Adjudicado">SI</SimpleData>
            <SimpleData name="Empresa">Hyh Consultores SRL</SimpleData>
            <SimpleData name="Lote">H</SimpleData>
            <SimpleData name="Monitorear">No</SimpleData>
            <SimpleData name="Fecha_de_M">-</SimpleData>
            <SimpleData name="F__de_pren">-</SimpleData>
            <SimpleData name="Estado_FAO">Verificar posible desercion</SimpleData>
            <SimpleData name="Etapa_de_i">Mantenimiento A?o 1.1</SimpleData>
            <SimpleData name="Fecha_visi">2026/09/16</SimpleData>
            <SimpleData name="Cumple_sup">Si</SimpleData>
            <SimpleData name="Estado_mon">-</SimpleData>
            <SimpleData name="Situaci_12">-</SimpleData>
            <SimpleData name="Observaci">Incendios;Parcela Quemada en totalidad de ?rea, Quemada por la propia participante</SimpleData>
            <SimpleData name="Dias_trans">11.38787664350</SimpleData>
            <SimpleData name="Prioridad">ALTA</SimpleData>
            <SimpleData name="OBJECTID_1">92</SimpleData>
          </SchemaData>
        </ExtendedData>
        <Polygon>
          <outerBoundaryIs>
            <LinearRing>
              <coordinates>
                -55.64468441652,-23.8972391166116,0
                -55.6445296998224,-23.897528399899,0
                -55.6445144113047,-23.8975226859931,0
                -55.6444938995431,-23.8975569004404,0
                -55.6452890003806,-23.8977908997728,0
                -55.6457350002053,-23.8969499999872,0
                -55.6450116999689,-23.8966932000848,0
                -55.64468441652,-23.8972391166116,0
              </coordinates>
            </LinearRing>
          </outerBoundaryIs>
        </Polygon>
      </Placemark>
      <Placemark id="YPEJH__.17">
        <ExtendedData>
          <SchemaData schemaUrl="#YPEJH__.schema">
            <SimpleData name="Cédula">5885619.00000000000</SimpleData>
            <SimpleData name="cedula">5885619</SimpleData>
            <SimpleData name="Cédula_1">5885619.00000000000</SimpleData>
            <SimpleData name="N_">46.00000000000</SimpleData>
            <SimpleData name="Nombres_y_">ADOLFINA BENITEZ ROMERO</SimpleData>
            <SimpleData name="Sexo">Mujer</SimpleData>
            <SimpleData name="Cambio_de_">NO</SimpleData>
            <SimpleData name="Titular_se">NO</SimpleData>
            <SimpleData name="Cédula_Ti">0.00000000000</SimpleData>
            <SimpleData name="Situación">NO</SimpleData>
            <SimpleData name="Comunidad">Ind?gena</SimpleData>
            <SimpleData name="Modelo_imp">Modelo 5</SimpleData>
            <SimpleData name="Departamen">CANINDEYU</SimpleData>
            <SimpleData name="Distrito">YPEJH?</SimpleData>
            <SimpleData name="Localidad">COM INDIG ITANARA-PARIRI</SimpleData>
            <SimpleData name="Teléfono">ND</SimpleData>
            <SimpleData name="Vivienda_L">-23.82663160000</SimpleData>
            <SimpleData name="Vivienda_1">-55.68926490000</SimpleData>
            <SimpleData name="Superficie">0.70000000000</SimpleData>
            <SimpleData name="Situaci_1">Par?metro</SimpleData>
            <SimpleData name="Plantado">SI</SimpleData>
            <SimpleData name="Parcela_La">-23.82644136000</SimpleData>
            <SimpleData name="Parcela_Lo">-55.68833989000</SimpleData>
            <SimpleData name="Grupo_Impl">G2</SimpleData>
            <SimpleData name="Grupo_de_P">H-P9-XX-XX-XX</SimpleData>
            <SimpleData name="Jornales">0.00000000000</SimpleData>
            <SimpleData name="Monto">0.00000000000</SimpleData>
            <SimpleData name="ETAPA_FAO">Mantenimiento A?o 1.1</SimpleData>
            <SimpleData name="Estado_del">Activo</SimpleData>
            <SimpleData name="Adjudicado">SI</SimpleData>
            <SimpleData name="Empresa">Hyh Consultores SRL</SimpleData>
            <SimpleData name="Lote">H</SimpleData>
            <SimpleData name="Monitorear">Si</SimpleData>
            <SimpleData name="Fecha_de_M">-</SimpleData>
            <SimpleData name="F__de_pren">-</SimpleData>
            <SimpleData name="Estado_FAO">Verificar posible desercion</SimpleData>
            <SimpleData name="Etapa_de_i">Mantenimiento A?o 1.1</SimpleData>
            <SimpleData name="Fecha_visi">2026/09/23</SimpleData>
            <SimpleData name="Cumple_sup">Si</SimpleData>
            <SimpleData name="Estado_mon">-</SimpleData>
            <SimpleData name="Situaci_12">-</SimpleData>
            <SimpleData name="Observaci">Falta de inter?s o no ve el beneficio;Al momento de la visita se observa que en  la parcela  se realiz? corpida y posterior quema afectando a plantas existente en la parcela, tambi?n se observa hoyos vac?os indicando que las plantas de citricos fue a</SimpleData>
            <SimpleData name="Dias_trans">4.37870826389</SimpleData>
            <SimpleData name="Prioridad">ALTA</SimpleData>
            <SimpleData name="OBJECTID_1">46</SimpleData>
          </SchemaData>
        </ExtendedData>
        <Polygon>
          <outerBoundaryIs>
            <LinearRing>
              <coordinates>
                -55.6878150999758,-23.8263567998358,0
                -55.6875851996804,-23.8266970003144,0
                -55.6877070996508,-23.8267806002724,0
                -55.6878949993977,-23.8267405999137,0
                -55.6879037999984,-23.8267457998512,0
                -55.6880010999197,-23.8266214003493,0
                -55.6881399996232,-23.8265633001465,0
                -55.6882455996951,-23.8265939998224,0
                -55.688297399714,-23.8266801997167,0
                -55.6884132996179,-23.8267904000271,0
                -55.6886634994112,-23.826812800308,0
                -55.6887628995243,-23.8268347998221,0
                -55.6889765999906,-23.8267776999725,0
                -55.6890392994828,-23.8267028000136,0
                -55.6891356998564,-23.8264733998975,0
                -55.6890692998402,-23.8264202005011,0
                -55.6889515999907,-23.826420600198,0
                -55.6889100995614,-23.8264604003654,0
                -55.6886691993574,-23.8264321002664,0
                -55.6885039999674,-23.8262808001856,0
                -55.6885043997742,-23.8262174004365,0
                -55.6885066998821,-23.8260595004889,0
                -55.688194999971,-23.8258350000398,0
                -55.6881133993531,-23.8259415004359,0
                -55.6879770991571,-23.8261290001466,0
                -55.6878150999758,-23.8263567998358,0
              </coordinates>
            </LinearRing>
          </outerBoundaryIs>
        </Polygon>
      </Placemark>
      <Placemark id="YPEJH__.18">
        <ExtendedData>
          <SchemaData schemaUrl="#YPEJH__.schema">
            <SimpleData name="Cédula">6826727.00000000000</SimpleData>
            <SimpleData name="cedula">6826727</SimpleData>
            <SimpleData name="Cédula_1">6826727.00000000000</SimpleData>
            <SimpleData name="N_">90.00000000000</SimpleData>
            <SimpleData name="Nombres_y_">CLEIDE RECALDE BENITEZ</SimpleData>
            <SimpleData name="Sexo">Mujer</SimpleData>
            <SimpleData name="Cambio_de_">NO</SimpleData>
            <SimpleData name="Titular_se">NO</SimpleData>
            <SimpleData name="Cédula_Ti">0.00000000000</SimpleData>
            <SimpleData name="Situación">NO</SimpleData>
            <SimpleData name="Comunidad">Ind?gena</SimpleData>
            <SimpleData name="Modelo_imp">Modelo 5</SimpleData>
            <SimpleData name="Departamen">CANINDEYU</SimpleData>
            <SimpleData name="Distrito">YPEJH?</SimpleData>
            <SimpleData name="Localidad">COM INDIG ITANARA-PARIRI</SimpleData>
            <SimpleData name="Teléfono">0986705917</SimpleData>
            <SimpleData name="Vivienda_L">-23.82750950000</SimpleData>
            <SimpleData name="Vivienda_1">-55.68698520000</SimpleData>
            <SimpleData name="Superficie">0.70000000000</SimpleData>
            <SimpleData name="Situaci_1">Par?metro</SimpleData>
            <SimpleData name="Plantado">SI</SimpleData>
            <SimpleData name="Parcela_La">-23.82608597000</SimpleData>
            <SimpleData name="Parcela_Lo">-55.68762074000</SimpleData>
            <SimpleData name="Grupo_Impl">G2</SimpleData>
            <SimpleData name="Grupo_de_P">H-P9-XX-XX-XX</SimpleData>
            <SimpleData name="Jornales">0.00000000000</SimpleData>
            <SimpleData name="Monto">0.00000000000</SimpleData>
            <SimpleData name="ETAPA_FAO">Mantenimiento A?o 1.1</SimpleData>
            <SimpleData name="Estado_del">Activo</SimpleData>
            <SimpleData name="Adjudicado">SI</SimpleData>
            <SimpleData name="Empresa">Hyh Consultores SRL</SimpleData>
            <SimpleData name="Lote">H</SimpleData>
            <SimpleData name="Monitorear">Si</SimpleData>
            <SimpleData name="Fecha_de_M">-</SimpleData>
            <SimpleData name="F__de_pren">-</SimpleData>
            <SimpleData name="Estado_FAO">Verificar posible desercion</SimpleData>
            <SimpleData name="Etapa_de_i">Mantenimiento A?o 1.1</SimpleData>
            <SimpleData name="Fecha_visi">2026/09/24</SimpleData>
            <SimpleData name="Cumple_sup">Si</SimpleData>
            <SimpleData name="Estado_mon">-</SimpleData>
            <SimpleData name="Situaci_12">-</SimpleData>
            <SimpleData name="Observaci">Falta de inter?s o no ve el beneficio;parcela abandonada sin plantas, se pudo conversar con la participante admitiendo que no va poder realizar actividades en la parcela y mudo las plantas de citricos en un sololugar  fuera de la parcela desconfigurando</SimpleData>
            <SimpleData name="Dias_trans">3.58541280092</SimpleData>
            <SimpleData name="Prioridad">ALTA</SimpleData>
            <SimpleData name="OBJECTID_1">90</SimpleData>
          </SchemaData>
        </ExtendedData>
        <Polygon>
          <outerBoundaryIs>
            <LinearRing>
              <coordinates>
                -55.6871678995136,-23.826552200242,0
                -55.6875279993295,-23.8267457000145,0
                -55.6881649994592,-23.8258317004276,0
                -55.6875299993153,-23.8254197997793,0
                -55.6871678995136,-23.826552200242,0
              </coordinates>
            </LinearRing>
          </outerBoundaryIs>
        </Polygon>
      </Placemark>
      <Placemark id="YPEJH__.19">
        <ExtendedData>
          <SchemaData schemaUrl="#YPEJH__.schema">
            <SimpleData name="Cédula">6757463.00000000000</SimpleData>
            <SimpleData name="cedula">6757463</SimpleData>
            <SimpleData name="Cédula_1">6757463.00000000000</SimpleData>
            <SimpleData name="N_">86.00000000000</SimpleData>
            <SimpleData name="Nombres_y_">LUCIANA MEDINA BENITEZ</SimpleData>
            <SimpleData name="Sexo">Mujer</SimpleData>
            <SimpleData name="Cambio_de_">NO</SimpleData>
            <SimpleData name="Titular_se">NO</SimpleData>
            <SimpleData name="Cédula_Ti">0.00000000000</SimpleData>
            <SimpleData name="Situación">NO</SimpleData>
            <SimpleData name="Comunidad">Ind?gena</SimpleData>
            <SimpleData name="Modelo_imp">Modelo 5</SimpleData>
            <SimpleData name="Departamen">CANINDEYU</SimpleData>
            <SimpleData name="Distrito">YPEJH?</SimpleData>
            <SimpleData name="Localidad">COM INDIG ITANARA-PARIRI</SimpleData>
            <SimpleData name="Teléfono">0986705917</SimpleData>
            <SimpleData name="Vivienda_L">-23.82927690000</SimpleData>
            <SimpleData name="Vivienda_1">-55.68603190000</SimpleData>
            <SimpleData name="Superficie">0.70000000000</SimpleData>
            <SimpleData name="Situaci_1">Par?metro</SimpleData>
            <SimpleData name="Plantado">SI</SimpleData>
            <SimpleData name="Parcela_La">-23.82995375000</SimpleData>
            <SimpleData name="Parcela_Lo">-55.68721670000</SimpleData>
            <SimpleData name="Grupo_Impl">G2</SimpleData>
            <SimpleData name="Grupo_de_P">H-P9-XX-XX-XX</SimpleData>
            <SimpleData name="Jornales">0.00000000000</SimpleData>
            <SimpleData name="Monto">0.00000000000</SimpleData>
            <SimpleData name="ETAPA_FAO">Mantenimiento A?o 1.1</SimpleData>
            <SimpleData name="Estado_del">Activo</SimpleData>
            <SimpleData name="Adjudicado">SI</SimpleData>
            <SimpleData name="Empresa">Hyh Consultores SRL</SimpleData>
            <SimpleData name="Lote">H</SimpleData>
            <SimpleData name="Monitorear">Si</SimpleData>
            <SimpleData name="Fecha_de_M">28/7/2026</SimpleData>
            <SimpleData name="F__de_pren">70</SimpleData>
            <SimpleData name="Estado_FAO">Monitorear reposicion</SimpleData>
            <SimpleData name="Etapa_de_i">Mantenimiento A?o 1.1</SimpleData>
            <SimpleData name="Fecha_visi">2026/09/26</SimpleData>
            <SimpleData name="Cumple_sup">Si</SimpleData>
            <SimpleData name="Estado_mon">No cumple</SimpleData>
            <SimpleData name="Situaci_12">Parcela enmalezada, no se observan trabajos ni reposiciones, se recomienda realizar limpieza de lineas de plantaci?n con desmalezadora, realizar replante y poda de c?tricos</SimpleData>
            <SimpleData name="Observaci">-</SimpleData>
            <SimpleData name="Dias_trans">1.54359953704</SimpleData>
            <SimpleData name="Prioridad">ALTA</SimpleData>
            <SimpleData name="OBJECTID_1">86</SimpleData>
          </SchemaData>
        </ExtendedData>
        <Polygon>
          <outerBoundaryIs>
            <LinearRing>
              <coordinates>
                -55.6876872277905,-23.8300297463909,0
                -55.6873658133417,-23.8296784960507,0
                -55.6870923996131,-23.8293796998239,0
                -55.6865784996229,-23.8296839997821,0
                -55.6873931995662,-23.8305652998254,0
                -55.6878216995398,-23.8301767002492,0
                -55.6876872277905,-23.8300297463909,0
              </coordinates>
            </LinearRing>
          </outerBoundaryIs>
        </Polygon>
      </Placemark>
      <Placemark id="YPEJH__.20">
        <ExtendedData>
          <SchemaData schemaUrl="#YPEJH__.schema">
            <SimpleData name="Cédula">6743519.00000000000</SimpleData>
            <SimpleData name="cedula">6743519</SimpleData>
            <SimpleData name="Cédula_1">6743519.00000000000</SimpleData>
            <SimpleData name="N_">94.00000000000</SimpleData>
            <SimpleData name="Nombres_y_">ANASTACIO VERGARA PERALTA</SimpleData>
            <SimpleData name="Sexo">Hombre</SimpleData>
            <SimpleData name="Cambio_de_">NO</SimpleData>
            <SimpleData name="Titular_se">NO</SimpleData>
            <SimpleData name="Cédula_Ti">0.00000000000</SimpleData>
            <SimpleData name="Situación">NO</SimpleData>
            <SimpleData name="Comunidad">Ind?gena</SimpleData>
            <SimpleData name="Modelo_imp">Modelo 5</SimpleData>
            <SimpleData name="Departamen">CANINDEYU</SimpleData>
            <SimpleData name="Distrito">YPEJH?</SimpleData>
            <SimpleData name="Localidad">COM INDIG ITANARA-PARIRI</SimpleData>
            <SimpleData name="Teléfono">ND</SimpleData>
            <SimpleData name="Vivienda_L">-23.83849330000</SimpleData>
            <SimpleData name="Vivienda_1">-55.68629340000</SimpleData>
            <SimpleData name="Superficie">0.70000000000</SimpleData>
            <SimpleData name="Situaci_1">Par?metro</SimpleData>
            <SimpleData name="Plantado">SI</SimpleData>
            <SimpleData name="Parcela_La">-23.84082450000</SimpleData>
            <SimpleData name="Parcela_Lo">-55.68573074000</SimpleData>
            <SimpleData name="Grupo_Impl">G2</SimpleData>
            <SimpleData name="Grupo_de_P">H-P9-XX-XX-XX</SimpleData>
            <SimpleData name="Jornales">0.00000000000</SimpleData>
            <SimpleData name="Monto">0.00000000000</SimpleData>
            <SimpleData name="ETAPA_FAO">Mantenimiento A?o 1.1</SimpleData>
            <SimpleData name="Estado_del">Activo</SimpleData>
            <SimpleData name="Adjudicado">SI</SimpleData>
            <SimpleData name="Empresa">Hyh Consultores SRL</SimpleData>
            <SimpleData name="Lote">H</SimpleData>
            <SimpleData name="Monitorear">Si</SimpleData>
            <SimpleData name="Fecha_de_M">-</SimpleData>
            <SimpleData name="F__de_pren">-</SimpleData>
            <SimpleData name="Estado_FAO">Monitorear</SimpleData>
            <SimpleData name="Etapa_de_i">Mantenimiento A?o 1.1</SimpleData>
            <SimpleData name="Fecha_visi">2026/09/07</SimpleData>
            <SimpleData name="Cumple_sup">Si</SimpleData>
            <SimpleData name="Estado_mon">-</SimpleData>
            <SimpleData name="Situaci_12">-</SimpleData>
            <SimpleData name="Observaci">-</SimpleData>
            <SimpleData name="Dias_trans">20.56673611110</SimpleData>
            <SimpleData name="Prioridad">ALTA</SimpleData>
            <SimpleData name="OBJECTID_1">94</SimpleData>
          </SchemaData>
        </ExtendedData>
        <Polygon>
          <outerBoundaryIs>
            <LinearRing>
              <coordinates>
                -55.6855969780729,-23.8403053150958,0
                -55.6855242170741,-23.8405153718093,0
                -55.6852462995271,-23.8413177001946,0
                -55.6857313995479,-23.8414119000247,0
                -55.6862832999955,-23.8404432997696,0
                -55.6856169002661,-23.8402478003933,0
                -55.6855969780729,-23.8403053150958,0
              </coordinates>
            </LinearRing>
          </outerBoundaryIs>
        </Polygon>
      </Placemark>
      <Placemark id="YPEJH__.21">
        <ExtendedData>
          <SchemaData schemaUrl="#YPEJH__.schema">
            <SimpleData name="Cédula">8323662.00000000000</SimpleData>
            <SimpleData name="cedula">8323662</SimpleData>
            <SimpleData name="Cédula_1">8323662.00000000000</SimpleData>
            <SimpleData name="N_">277.00000000000</SimpleData>
            <SimpleData name="Nombres_y_">VILMA MEDINA BENITEZ</SimpleData>
            <SimpleData name="Sexo">Mujer</SimpleData>
            <SimpleData name="Cambio_de_">NO</SimpleData>
            <SimpleData name="Titular_se">NO</SimpleData>
            <SimpleData name="Cédula_Ti">0.00000000000</SimpleData>
            <SimpleData name="Situación">NO</SimpleData>
            <SimpleData name="Comunidad">Ind?gena</SimpleData>
            <SimpleData name="Modelo_imp">Modelo 5</SimpleData>
            <SimpleData name="Departamen">CANINDEYU</SimpleData>
            <SimpleData name="Distrito">YPEJH?</SimpleData>
            <SimpleData name="Localidad">COM INDIG PARIRI</SimpleData>
            <SimpleData name="Teléfono">1234567890</SimpleData>
            <SimpleData name="Vivienda_L">-23.87921200000</SimpleData>
            <SimpleData name="Vivienda_1">-55.69816340000</SimpleData>
            <SimpleData name="Superficie">0.70000000000</SimpleData>
            <SimpleData name="Situaci_1">Parametro</SimpleData>
            <SimpleData name="Plantado">SI</SimpleData>
            <SimpleData name="Parcela_La">-23.87975609000</SimpleData>
            <SimpleData name="Parcela_Lo">-55.69760140000</SimpleData>
            <SimpleData name="Grupo_Impl">G2</SimpleData>
            <SimpleData name="Grupo_de_P">H-P17-XX-XX-XX</SimpleData>
            <SimpleData name="Jornales">0.00000000000</SimpleData>
            <SimpleData name="Monto">0.00000000000</SimpleData>
            <SimpleData name="ETAPA_FAO">Mantenimiento A?o 1.1</SimpleData>
            <SimpleData name="Estado_del">Activo</SimpleData>
            <SimpleData name="Adjudicado">Si</SimpleData>
            <SimpleData name="Empresa">Hyh Consultores SRL</SimpleData>
            <SimpleData name="Lote">H</SimpleData>
            <SimpleData name="Monitorear">Si</SimpleData>
            <SimpleData name="Fecha_de_M">-</SimpleData>
            <SimpleData name="F__de_pren">-</SimpleData>
            <SimpleData name="Estado_FAO">Monitorear</SimpleData>
            <SimpleData name="Etapa_de_i">Mantenimiento A?o 1.1</SimpleData>
            <SimpleData name="Fecha_visi">2026/08/18</SimpleData>
            <SimpleData name="Cumple_sup">Si</SimpleData>
            <SimpleData name="Estado_mon">-</SimpleData>
            <SimpleData name="Situaci_12">-</SimpleData>
            <SimpleData name="Observaci">-</SimpleData>
            <SimpleData name="Dias_trans">40.42968750000</SimpleData>
            <SimpleData name="Prioridad">ALTA</SimpleData>
            <SimpleData name="OBJECTID_1">277</SimpleData>
          </SchemaData>
        </ExtendedData>
        <MultiGeometry>
          <Polygon>
            <outerBoundaryIs>
              <LinearRing>
                <coordinates>
                  -55.6976688003229,-23.8803274001432,0
                  -55.6977786996333,-23.8803618003041,0
                  -55.697896200431,-23.8803118000701,0
                  -55.6979332267358,-23.8802807672786,0
                  -55.6979381995532,-23.880276600075,0
                  -55.6979260925623,-23.8802511480392,0
                  -55.6978433001437,-23.8800771003257,0
                  -55.6978254999586,-23.8799857001878,0
                  -55.6978086004621,-23.8798991003415,0
                  -55.6977014002243,-23.8797287997275,0
                  -55.6976735998082,-23.8796462997391,0
                  -55.6976868000623,-23.8796046997561,0
                  -55.6977794000216,-23.8795608998582,0
                  -55.6977856004031,-23.8795111995625,0
                  -55.6977430998062,-23.8794297997758,0
                  -55.6976917000879,-23.8792667002286,0
                  -55.6976680997008,-23.8792444002118,0
                  -55.6974311003039,-23.8792716001692,0
                  -55.6973004997184,-23.8792878998489,0
                  -55.6972534004322,-23.8793557996565,0
                  -55.6976257999676,-23.8802914998377,0
                  -55.6976688003229,-23.8803274001432,0
                </coordinates>
              </LinearRing>
            </outerBoundaryIs>
          </Polygon>
          <Polygon>
            <outerBoundaryIs>
              <LinearRing>
                <coordinates>
                  -55.6988166003703,-23.8788416002693,0
                  -55.6982401996011,-23.8791183998041,0
                  -55.6983782999393,-23.8792816997098,0
                  -55.6985410002126,-23.8792102003701,0
                  -55.6986132997369,-23.8792050004297,0
                  -55.6986194252889,-23.8792113584747,0
                  -55.6986527999291,-23.8792460003875,0
                  -55.6986760084057,-23.8792673414808,0
                  -55.6987845003175,-23.8793670997397,0
                  -55.6991234995739,-23.8793745001221,0
                  -55.6991649995918,-23.8792921003021,0
                  -55.6991678000194,-23.8791886999197,0
                  -55.6991386997044,-23.8791327001509,0
                  -55.6990870326933,-23.8790746628054,0
                  -55.6990682995024,-23.8790771992535,0
                  -55.6990573707985,-23.8790413437815,0
                  -55.6988766998282,-23.878838400331,0
                  -55.6988166003703,-23.8788416002693,0
                </coordinates>
              </LinearRing>
            </outerBoundaryIs>
          </Polygon>
        </MultiGeometry>
      </Placemark>
      <Placemark id="YPEJH__.22">
        <ExtendedData>
          <SchemaData schemaUrl="#YPEJH__.schema">
            <SimpleData name="Cédula">6757450.00000000000</SimpleData>
            <SimpleData name="cedula">6757450</SimpleData>
            <SimpleData name="Cédula_1">6757450.00000000000</SimpleData>
            <SimpleData name="N_">276.00000000000</SimpleData>
            <SimpleData name="Nombres_y_">REINALDO LOPEZ MARTINEZ</SimpleData>
            <SimpleData name="Sexo">Hombre</SimpleData>
            <SimpleData name="Cambio_de_">NO</SimpleData>
            <SimpleData name="Titular_se">NO</SimpleData>
            <SimpleData name="Cédula_Ti">0.00000000000</SimpleData>
            <SimpleData name="Situación">0</SimpleData>
            <SimpleData name="Comunidad">Ind?gena</SimpleData>
            <SimpleData name="Modelo_imp">Modelo 5</SimpleData>
            <SimpleData name="Departamen">CANINDEYU</SimpleData>
            <SimpleData name="Distrito">YPEJH?</SimpleData>
            <SimpleData name="Localidad">COM INDIG PARIRI</SimpleData>
            <SimpleData name="Teléfono">1234567890</SimpleData>
            <SimpleData name="Vivienda_L">-23.87857000000</SimpleData>
            <SimpleData name="Vivienda_1">-55.69805090000</SimpleData>
            <SimpleData name="Superficie">0.70000000000</SimpleData>
            <SimpleData name="Situaci_1">Parametro</SimpleData>
            <SimpleData name="Plantado">SI</SimpleData>
            <SimpleData name="Parcela_La">-23.87752733000</SimpleData>
            <SimpleData name="Parcela_Lo">-55.69752936000</SimpleData>
            <SimpleData name="Grupo_Impl">G2</SimpleData>
            <SimpleData name="Grupo_de_P">H-P17-XX-XX-XX</SimpleData>
            <SimpleData name="Jornales">0.00000000000</SimpleData>
            <SimpleData name="Monto">0.00000000000</SimpleData>
            <SimpleData name="ETAPA_FAO">Mantenimiento A?o 1.1</SimpleData>
            <SimpleData name="Estado_del">Activo</SimpleData>
            <SimpleData name="Adjudicado">Si</SimpleData>
            <SimpleData name="Empresa">Hyh Consultores SRL</SimpleData>
            <SimpleData name="Lote">H</SimpleData>
            <SimpleData name="Monitorear">Si</SimpleData>
            <SimpleData name="Fecha_de_M">-</SimpleData>
            <SimpleData name="F__de_pren">-</SimpleData>
            <SimpleData name="Estado_FAO">Monitorear</SimpleData>
            <SimpleData name="Etapa_de_i">Mantenimiento A?o 1.1</SimpleData>
            <SimpleData name="Fecha_visi">2026/08/24</SimpleData>
            <SimpleData name="Cumple_sup">Si</SimpleData>
            <SimpleData name="Estado_mon">-</SimpleData>
            <SimpleData name="Situaci_12">-</SimpleData>
            <SimpleData name="Observaci">-</SimpleData>
            <SimpleData name="Dias_trans">34.47520833330</SimpleData>
            <SimpleData name="Prioridad">ALTA</SimpleData>
            <SimpleData name="OBJECTID_1">276</SimpleData>
          </SchemaData>
        </ExtendedData>
        <Polygon>
          <outerBoundaryIs>
            <LinearRing>
              <coordinates>
                -55.6977134437955,-23.8780501883093,0
                -55.6977650004761,-23.8780267000382,0
                -55.6979149995973,-23.8779582997866,0
                -55.6979496221575,-23.8780633984682,0
                -55.6979613995839,-23.8780617000673,0
                -55.6978846000151,-23.8775611998122,0
                -55.6978883001985,-23.8774032995565,0
                -55.6978434998427,-23.8770951995972,0
                -55.6975994998197,-23.8770510999407,0
                -55.6973550999448,-23.8770764004257,0
                -55.6971092996298,-23.8772662000765,0
                -55.6970174000801,-23.8774244002587,0
                -55.6970982998164,-23.8776500003194,0
                -55.6972526995491,-23.8777315004284,0
                -55.6973548997129,-23.8779546003153,0
                -55.6975657997114,-23.8779858999187,0
                -55.6977134437955,-23.8780501883093,0
              </coordinates>
            </LinearRing>
          </outerBoundaryIs>
        </Polygon>
      </Placemark>
    </Document>
  </Document>
</kml>
